satname,norad_id,inclination_deg,eccentricity,mean_motion_rev_per_day,perigee_km,apogee_km,l1,l2
STARLINK-1320,45572,53.0581,0.0009492,15.43466339,429.42028979679617,442.3560351652495,1 45572U 20025AT  25309.05967843  .00078994  00000+0  17261-2 0  9998,2 45572  53.0581 228.2814 0009492  40.7125 319.4588 15.43466339307414
STARLINK-1321,45573,53.0547,0.0001481,15.06391522,546.2118939394295,548.2631898787431,1 45573U 20025AU  25309.20774452 -.00003121  00000+0 -19073-3 0  9994,2 45573  53.0547 275.4398 0001481  83.4072 276.7086 15.06391522306443
STARLINK-1328,45576,53.0518,0.0011542,15.70115241,350.79185105284614,366.3428593864346,1 45576U 20025AX  25309.33336806  .00246928  00000+0  19439-2 0  9995,2 45576  53.0518 249.0351 0011542  59.3989 134.5271 15.70115241  5961
STARLINK-1331,45578,53.0545,0.000155,15.06390955,546.1658463759159,548.3127130226221,1 45578U 20025AZ  25309.18563336 -.00000494  00000+0 -14255-4 0  9991,2 45578  53.0545 275.5396 0001550  89.3071 270.8095 15.06390955306754
STARLINK-1333,45580,53.055,0.0001361,15.06391709,546.2944253785518,548.1795121728519,1 45580U 20025BB  25309.25843337 -.00000113  00000+0  11320-4 0  9991,2 45580  53.0550 285.2114 0001361  92.9145 267.2000 15.06391709306610
STARLINK-1335,45581,53.055,0.0001405,15.0639447,546.2554927899764,548.2015204973441,1 45581U 20025BC  25309.19668108 -.00003732  00000+0 -23180-3 0  9993,2 45581  53.0550 275.4894 0001405  99.4486 260.6662 15.06394470306749
STARLINK-1337,45582,53.0544,0.000124,15.06388953,546.3866681895915,548.1041630286627,1 45582U 20025BD  25309.21880546 -.00001996  00000+0 -11517-3 0  9990,2 45582  53.0544 275.3925 0001240  88.1608 271.9523 15.06388953306745
STARLINK-1347,45586,53.0551,0.0008148,15.32345329,463.2380801037107,474.395876306593,1 45586U 20025BH  25309.15138471  .00080769  00000+0  25326-2 0  9995,2 45586  53.0551 260.3766 0008148  28.0781 332.0657 15.32345329306941
STARLINK-1360,45588,53.0431,0.0005212,15.76221061,337.6566568607677,344.660850754537,1 45588U 20025BK  25308.64011757  .00106176  00000+0  65871-3 0  9998,2 45588  53.0431 180.0762 0005212 142.9434 217.1946 15.76221061308034
STARLINK-1364,45589,53.0548,0.000103,15.06400105,546.4979252600979,547.92454699674,1 45589U 20025BL  25309.22249458  .00001809  00000+0  14030-3 0  9993,2 45589  53.0548 275.3752 0001030  68.6010 291.5088 15.06400105306749
STARLINK-1365,45590,53.0545,0.0001277,15.06393032,546.3485441990115,548.1172836750311,1 45590U 20025BM  25308.97276302  .00000212  00000+0  33145-4 0  9990,2 45590  53.0545 306.4941 0001277  94.1822 265.9313 15.06393032306300
STARLINK-1443,45660,53.0549,0.0001769,15.06385849,546.02982722243,548.4800308869308,1 45660U 20035D   25309.15706443  .00000072  00000+0  23719-4 0  9994,2 45660  53.0549 265.6685 0001769  99.2469 260.8720 15.06385849299968
STARLINK-1446,45663,53.0264,0.0001901,15.3407994,462.3540667638208,464.9553159648767,1 45663U 20035G   25309.01578367  .00039339  00000+0  11811-2 0  9990,2 45663  53.0264 228.3227 0001901  74.8223 285.2988 15.34079940300477
STARLINK-1448,45665,53.055,0.0001427,15.06415789,546.1749270160917,548.1514076838548,1 45665U 20035J   25309.09437785 -.00002339  00000+0 -13814-3 0  9996,2 45665  53.0550 265.9461 0001427  86.8628 273.2525 15.06415789299946
STARLINK-1451,45668,53.0554,0.0001649,15.0639331,546.0900685423157,548.3740552589297,1 45668U 20035M   25309.16447921 -.00000590  00000+0 -20737-4 0  9990,2 45668  53.0554 265.9509 0001649  97.7918 262.3258 15.06393310299964
STARLINK-1452,45669,53.0407,0.0011812,15.2700383,476.668427218372,492.881370287987,1 45669U 20035N   25309.14203753  .00053381  00000+0  19827-2 0  9992,2 45669  53.0407 246.3432 0011812  38.0089 322.1740 15.27003830300232
STARLINK-1453,45670,53.0536,0.0001645,15.0638248,546.1260260644594,548.404483406267,1 45670U 20035P   25309.10821394 -.00007495  00000+0 -48502-3 0  9997,2 45670  53.0536 235.8879 0001645  99.6846 260.4329 15.06382480300260
STARLINK-1454,45671,53.0547,0.0001521,15.06390933,546.1859973843784,548.2926968691736,1 45671U 20035Q   25309.05385451 -.00004426  00000+0 -27848-3 0  9992,2 45671  53.0547 266.1330 0001521  97.0076 263.1086 15.06390933299935
STARLINK-1456,45673,53.0552,0.0001577,15.06393613,546.1390026879326,548.3232637971569,1 45673U 20035S   25309.20129725 -.00001928  00000+0 -11055-3 0  9998,2 45673  53.0552 265.4707 0001577  79.2220 280.8946 15.06393613299970
STARLINK-1457,45674,53.0533,0.0001443,15.17165456,513.4176466982071,515.40683640932,1 45674U 20035T   25309.33336806  .01127149  00000+0  51692-1 0  9995,2 45674  53.0533 264.6638 0001443 111.9764 314.8405 15.17165456  5802
STARLINK-1458,45675,53.055,0.0001454,15.06389303,546.2373924493768,548.2512933438911,1 45675U 20035U   25309.19760984 -.00002870  00000+0 -17388-3 0  9998,2 45675  53.0550 265.4871 0001454  80.9560 279.1593 15.06389303299938
STARLINK-1460,45676,53.0546,0.0001445,15.06382308,546.2650611988756,548.2665026028444,1 45676U 20035V   25309.16813511 -.00000515  00000+0 -15680-4 0  9999,2 45676  53.0546 265.6183 0001445  84.3792 275.7362 15.06382308299920
STARLINK-1392,45677,53.0552,0.0001757,15.06396619,546.0051346734199,548.4387057979911,1 45677U 20035W   25309.11283100 -.00002366  00000+0 -14001-3 0  9991,2 45677  53.0552 265.8669 0001757 103.8845 256.2339 15.06396619299952
STARLINK-1394,45679,53.0538,0.0001416,15.06389105,546.2643156612803,548.2255838294477,1 45679U 20035Y   25309.24276748  .00002594  00000+0  19302-3 0  9997,2 45679  53.0538 255.2823 0001416  83.3104 276.8046 15.06389105300111
STARLINK-1402,45685,53.0532,0.0002786,15.27300578,481.97415400430964,485.79767317176083,1 45685U 20035AE  25309.24974897  .00071548  00000+0  26274-2 0  9994,2 45685  53.0532 247.3246 0002786 115.1982 244.9305 15.27300578300239
STARLINK-1404,45686,53.055,0.0001883,15.06404041,545.8951320816204,548.5032136843283,1 45686U 20035AF  25309.13586402  .00001419  00000+0  11416-3 0  9997,2 45686  53.0550 255.7639 0001883 146.9889 213.1218 15.06404041300108
STARLINK-1413,45689,53.0555,0.0001501,15.06384909,546.2183083049094,548.297311826891,1 45689U 20035AJ  25309.15430822 -.00002082  00000+0 -12096-3 0  9990,2 45689  53.0555 255.6782 0001501  86.3640 273.7521 15.06384909300012
STARLINK-1417,45693,53.0545,0.0001528,15.06394956,546.1688214931291,548.2852127367587,1 45693U 20035AN  25309.15061089 -.00001514  00000+0 -82771-4 0  9997,2 45693  53.0545 255.6981 0001528 102.9817 257.1342 15.06394956300095
STARLINK-1420,45695,53.0545,0.0001607,15.06389135,546.1319489340294,548.3577666631254,1 45695U 20035AQ  25309.08515865 -.00006398  00000+0 -41115-3 0  9998,2 45695  53.0545 235.9799 0001607 100.4531 259.6639 15.06389135300379
STARLINK-1422,45696,53.0545,0.0001539,15.06385574,546.1899539558017,548.3215898509934,1 45696U 20035AR  25309.16166842 -.00006469  00000+0 -41592-3 0  9993,2 45696  53.0545 255.6489 0001539  82.4821 277.6343 15.06385574300094
STARLINK-1351,45697,53.0553,0.0001452,15.06388724,546.240551841156,548.2516830984696,1 45697U 20035AS  25309.07136913 -.00000217  00000+0  43036-5 0  9991,2 45697  53.0553 236.0491 0001452  94.4862 265.6293 15.06388724300374
STARLINK-1398,45699,53.0503,0.0005528,15.52200715,406.54938286059587,414.0546810543283,1 45699U 20035AU  25308.95836494  .00095427  00000+0  15360-2 0  9992,2 45699  53.0503 194.7894 0005528 117.0658 243.0916 15.52200715300940
STARLINK-1400,45700,53.0545,0.0001492,15.06381504,546.2349756316753,548.3015165571105,1 45700U 20035AV  25309.11191416 -.00006699  00000+0 -43149-3 0  9994,2 45700  53.0545 235.8711 0001492  78.9192 281.1965 15.06381504300377
STARLINK-1403,45701,53.0546,0.0001674,15.06388316,546.0880586037374,548.4066772901269,1 45701U 20035AW  25309.07504363 -.00006084  00000+0 -38999-3 0  9994,2 45701  53.0546 236.0371 0001674  93.9420 266.1761 15.06388316300361
STARLINK-1407,45703,53.0417,0.0011885,15.41653054,433.12538038342973,449.33501621378673,1 45703U 20035AY  25308.96155581  .00031448  00000+0  73987-3 0  9993,2 45703  53.0417 194.0497 0011885  72.5522 287.6781 15.41653054300951
STARLINK-1411,45706,53.0532,0.0002526,15.4154117,439.8375021322445,443.28281313628213,1 45706U 20035BB  25309.03669293  .00062367  00000+0  14606-2 0  9991,2 45706  53.0532 220.8488 0002526 124.9749 235.1492 15.41541170300575
STARLINK-1423,45710,53.0539,0.0001449,15.06380395,546.2681533786354,548.2751368039835,1 45710U 20035BF  25309.03450496 -.00009656  00000+0 -63056-3 0  9997,2 45710  53.0539 236.2198 0001449  87.0967 273.0188 15.06380395300361
STARLINK-1433,45711,53.054,0.0001651,15.06388251,546.1041861731146,548.3909481571927,1 45711U 20035BG  25309.08241805 -.00005352  00000+0 -34078-3 0  9996,2 45711  53.0540 236.0009 0001651 101.8690 258.2484 15.06388251300369
STARLINK-1434,45712,53.0509,0.0006251,15.15691862,514.5676005682681,523.1902498779818,1 45712U 20035BH  25309.08379056  .00019090  00000+0  10038-2 0  9998,2 45712  53.0509 231.8595 0006251  77.2461 282.9231 15.15691862300438
STARLINK-1465,45731,53.0517,0.0001314,15.06404291,546.2884176000762,548.1083957449491,1 45731U 20038B   25309.04924397  .00001768  00000+0  13755-3 0  9995,2 45731  53.0517  76.1457 0001314  90.1458 269.9682 15.06404291297405
STARLINK-1471,45735,53.0522,7.93e-05,15.41089851,442.3506492697679,443.43246439888117,1 45735U 20038F   25308.89912457  .00017259  00000+0  41971-3 0  9998,2 45735  53.0522  16.0323 0000793 123.7499 236.3581 15.41089851298247
STARLINK-1474,45738,53.0376,0.0004239,15.67528701,363.1172010121736,368.8348600394538,1 45738U 20038J   25309.24575518  .00073416  00000+0  66177-3 0  9996,2 45738  53.0376 330.8104 0004239 359.4140   0.6870 15.67528701298907
STARLINK-1475,45739,53.0471,0.0006678,15.79243619,328.10110093441017,337.06393792455947,1 45739U 20038K   25309.33336806  .00263739  00000+0  13980-2 0  9994,2 45739  53.0471 296.5302 0006678  37.0984 277.7637 15.79243619  6030
